[{"OBJECT_NAME":"COSMOS 2581","OBJECT_ID":"2025-026A","EPOCH":"2026-03-09T19:42:28.866816","MEAN_MOTION":14.94736104,"ECCENTRICITY":0.0010574,"INCLINATION":81.9986,"RA_OF_ASC_NODE":175.8565,"ARG_OF_PERICENTER":32.7244,"MEAN_ANOMALY":327.4629,"EPHEMERIS_TYPE":0,"CLASSIFICATION_TYPE":"U","NORAD_CAT_ID":62902,"ELEMENT_SET_NO":999,"REV_AT_EPOCH":5937,"BSTAR":0.00021137,"MEAN_MOTION_DOT":2.32e-5,"MEAN_MOTION_DDOT":0},{"OBJECT_NAME":"STARLINK-34484","OBJECT_ID":"2025-126Y","EPOCH":"2026-03-09T22:40:13.039968","MEAN_MOTION":14.98340581,"ECCENTRICITY":0.00022443,"INCLINATION":70.0047,"RA_OF_ASC_NODE":33.6675,"ARG_OF_PERICENTER":243.5816,"MEAN_ANOMALY":116.5113,"EPHEMERIS_TYPE":0,"CLASSIFICATION_TYPE":"U","NORAD_CAT_ID":64366,"ELEMENT_SET_NO":999,"REV_AT_EPOCH":4193,"BSTAR":0.00057375299,"MEAN_MOTION_DOT":6.761e-5,"MEAN_MOTION_DDOT":0}]
